*******************************************************************************
JPL/HORIZONS               4143 Huziak (1981 QN1)          2023-Sep-04 11:27:32
Rec #:    4143 (+COV) Soln.date: 2023-Aug-23_16:24:09   # obs: 3474 (1954-2023)
 
IAU76/J2000 helio. ecliptic osc. elements (au, days, deg., period=Julian yrs):
 
  EPOCH=  2457599.5 ! 2016-Jul-30.00 (TDB)         Residual RMS= .27061
   EC= .1860673097530622   QR= 2.517384320020804   TP= 2456762.2882852298
   OM= 103.5292393678264   W=  244.7968348187487   IN= 2.03353781553238
   A= 3.092865479155357    MA= 151.7042765187635   ADIST= 3.66834663828991
   PER= 5.43938            N= .181201808           ANGMOM= .029724248
   DAN= 3.24272            DDN= 2.76658            L= 348.3121644
   B= -1.8398821           MOID= 1.51078999        TP= 2014-Apr-14.7882852298
 
Asteroid physical parameters (km, seconds, rotational period in hours):
   GM= n.a.                RAD= 8.361              ROTPER= n.a.
   H= 12.79                G= .150                 B-V= n.a.
                           ALBEDO= .069            STYP= n.a.

ASTEROID comments: 
1: soln ref.= JPL#49, OCC=0
2: source=ORB
*******************************************************************************


*******************************************************************************
Ephemeris / API_USER Mon Sep  4 11:27:32 2023 Pasadena, USA      / Horizons
*******************************************************************************
Target body name: 4143 Huziak (1981 QN1)          {source: JPL#49}
Center body name: Solar System Barycenter (0)     {source: DE441}
Center-site name: BODY CENTER
*******************************************************************************
Start time      : A.D. 2023-Aug-12 00:00:00.0000 TDB
Stop  time      : A.D. 2023-Aug-13 00:00:00.0000 TDB
Step-size       : 2880 minutes
*******************************************************************************
Center geodetic : 0.0, 0.0, 0.0                   {E-lon(deg),Lat(deg),Alt(km)}
Center cylindric: 0.0, 0.0, 0.0                   {E-lon(deg),Dxy(km),Dz(km)}
Center radii    : (undefined)
Small perturbers: Yes                             {source: SB441-N16}
Output units    : KM-S
Calendar mode   : Mixed Julian/Gregorian
Output type     : GEOMETRIC cartesian states
Output format   : 2 (position and velocity)
Reference frame : Ecliptic of J2000.0
*******************************************************************************
Initial IAU76/J2000 heliocentric ecliptic osculating elements (au, days, deg.):
  EPOCH=  2457599.5 ! 2016-Jul-30.00 (TDB)         Residual RMS= .27061        
   EC= .1860673097530622   QR= 2.517384320020804   TP= 2456762.2882852298      
   OM= 103.5292393678264   W=  244.7968348187487   IN= 2.03353781553238        
  Equivalent ICRF heliocentric cartesian coordinates (au, au/d):
   X=-3.080027526232733E+00  Y= 1.704888411535388E+00  Z= 8.378708040888194E-01
  VX=-4.840372701379165E-03 VY=-6.201290450310759E-03 VZ=-2.446142125162289E-03
Asteroid physical parameters (km, seconds, rotational period in hours):        
   GM= n.a.                RAD= 8.361              ROTPER= n.a.                
   H= 12.79                G= .150                 B-V= n.a.                   
                           ALBEDO= .069            STYP= n.a.                  
*******************************************************************************
JDTDB
   X     Y     Z
   VX    VY    VZ
*******************************************************************************
$$SOE
2460168.500000000 = A.D. 2023-Aug-12 00:00:00.0000 TDB 
 X =-3.489605340442545E+08 Y =-3.569274933987211E+08 Z = 1.496929607842110E+07
 VX= 1.288831444053015E+01 VY=-8.961824901152131E+00 VZ=-3.721139024566069E-01
$$EOE
*******************************************************************************
 
TIME

  Barycentric Dynamical Time ("TDB" or T_eph) output was requested. This
continuous coordinate time is equivalent to the relativistic proper time
of a clock at rest in a reference frame co-moving with the solar system
barycenter but outside the system's gravity well. It is the independent
variable in the solar system relativistic equations of motion.

  TDB runs at a uniform rate of one SI second per second and is independent
of irregularities in Earth's rotation.
 
CALENDAR SYSTEM

  Mixed calendar mode was active such that calendar dates after AD 1582-Oct-15
(if any) are in the modern Gregorian system. Dates prior to 1582-Oct-5 (if any)
are in the Julian calendar system, which is automatically extended for dates
prior to its adoption on 45-Jan-1 BC.  The Julian calendar is useful for
matching historical dates. The Gregorian calendar more accurately corresponds
to the Earth's orbital motion and seasons. A "Gregorian-only" calendar mode is
available if such physical events are the primary interest.

REFERENCE FRAME AND COORDINATES

  Ecliptic at the standard reference epoch

    Reference epoch: J2000.0
    X-Y plane: adopted Earth orbital plane at the reference epoch
               Note: IAU76 obliquity of 84381.448 arcseconds wrt ICRF X-Y plane
    X-axis   : ICRF
    Z-axis   : perpendicular to the X-Y plane in the directional (+ or -) sense
               of Earth's north pole at the reference epoch.

  Symbol meaning:

    JDTDB    Julian Day Number, Barycentric Dynamical Time
      X      X-component of position vector (km)
      Y      Y-component of position vector (km)
      Z      Z-component of position vector (km)
      VX     X-component of velocity vector (km/sec)                           
      VY     Y-component of velocity vector (km/sec)                           
      VZ     Z-component of velocity vector (km/sec)                           

ABERRATIONS AND CORRECTIONS

 Geometric state vectors have NO corrections or aberrations applied.

Computations by ...

    Solar System Dynamics Group, Horizons On-Line Ephemeris System
    4800 Oak Grove Drive, Jet Propulsion Laboratory
    Pasadena, CA  91109   USA

    General site: https://ssd.jpl.nasa.gov/
    Mailing list: https://ssd.jpl.nasa.gov/email_list.html
    System news : https://ssd.jpl.nasa.gov/horizons/news.html
    User Guide  : https://ssd.jpl.nasa.gov/horizons/manual.html
    Connect     : browser        https://ssd.jpl.nasa.gov/horizons/app.html#/x
                  API            https://ssd-api.jpl.nasa.gov/doc/horizons.html
                  command-line   telnet ssd.jpl.nasa.gov 6775
                  e-mail/batch   https://ssd.jpl.nasa.gov/ftp/ssd/hrzn_batch.txt
                  scripts        https://ssd.jpl.nasa.gov/ftp/ssd/SCRIPTS
    Author      : Jon.D.Giorgini@jpl.nasa.gov
*******************************************************************************
